STARLINK-34316          
1 64707U 25142M   26185.26456811 -.00002304  00000+0 -18539-3 0  9992
2 64707  70.0014  20.4838 0002809 265.4369  94.6469 14.98331568 57117
STARLINK-34563          
1 64708U 25142N   26185.23956864  .00006255  00000+0  53123-3 0  9998
2 64708  70.0016  20.7960 0002433 266.1433  93.9447 14.98352336 56913
STARLINK-34499          
1 64709U 25142P   26185.25622816  .00002571  00000+0  22310-3 0  9999
2 64709  70.0021  20.4354 0002928 268.2598  91.8225 14.98337482 56925
STARLINK-34447          
1 64710U 25142Q   26184.80994608  .00003279  00000+0  28246-3 0  9992
2 64710  70.0027  21.6715 0002383 266.4702  93.6184 14.98334540 57049
STARLINK-34312          
1 64711U 25142R   26185.00188034  .00002949  00000+0  25483-3 0  9997
2 64711  70.0012  21.1672 0002833 267.1489  92.9345 14.98335484 57073
STARLINK-34515          
1 64712U 25142S   26185.24804424  .00001508  00000+0  13408-3 0  9996
2 64712  70.0018  20.4026 0002516 267.0222  93.0650 14.98339438 56924
STARLINK-34583          
1 64713U 25142T   26184.96417015  .00003278  00000+0  28233-3 0  9999
2 64713  70.0017  21.4119 0002911 268.2546  91.8280 14.98338632 56873
STARLINK-34574          
1 64714U 25142U   26184.94764354  .00003415  00000+0  29385-3 0  9991
2 64714  70.0040  21.3817 0002593 261.6450  98.4415 14.98336668 56905
STARLINK-34533          
1 64715U 25142V   26185.26875486  .00003671  00000+0  31523-3 0  9998
2 64715  70.0018  20.5002 0002654 267.0883  92.9973 14.98337050 56922
STARLINK-34548          
1 64716U 25142W   26185.25205582  .00003684  00000+0  31634-3 0  9999
2 64716  70.0016  20.4407 0003025 266.5376  93.5438 14.98336659 56920
STARLINK-34568          
1 64717U 25142X   26184.80978363  .00003294  00000+0  28369-3 0  9992
2 64717  70.0029  21.7069 0002908 265.2494  94.8333 14.98333566 56886
STARLINK-34546          
1 64718U 25142Y   26185.24370654  .00005798  00000+0  49313-3 0  9994
2 64718  70.0017  20.4108 0002963 268.6191  91.4628 14.98340916 57110
STARLINK-34577          
1 64719U 25142Z   26184.94747649  .00002593  00000+0  22499-3 0  9999
2 64719  70.0023  21.3503 0002359 257.4321 102.6574 14.98337067 56901
STARLINK-34572          
1 64720U 25142AA  26184.80560958  .00003604  00000+0  30961-3 0  9999
2 64720  70.0029  21.6909 0002641 263.8831  96.2027 14.98334094 57047
STARLINK-34558          
1 64721U 25142AB  26185.27309483  .00007131  00000+0  60471-3 0  9994
2 64721  70.0013  20.5075 0002559 265.8167  94.2700 14.98336590 56920
MTG-S1                  
1 64723U 25143A   26185.22217068  .00000004  00000+0  00000+0 0  9999
2 64723   0.5907 342.5206 0003046 262.4259 116.8162  1.00272378  3592
STARLINK-34393          
1 64724U 25144A   26185.00003472  .00046922  00000+0  13928-2 0  9994
2 64724  53.1591   0.3739 0000928  83.2831 341.9242 15.34364584  5873
STARLINK-34562          
1 64725U 25144B   26184.78233963  .00027263  00000+0  92887-3 0  9998
2 64725  53.1583   1.9885 0000962  66.2683 293.8419 15.30213177 57468
STARLINK-34557          
1 64726U 25144C   26182.93240530  .00031531  00000+0  10706-2 0  9994
2 64726  53.1612  10.3483 0000494  84.6627 275.4430 15.30247813 57207
STARLINK-34242          
1 64727U 25144D   26184.78972578  .00022463  00000+0  76805-3 0  9991
2 64727  53.1597   2.0325 0000812 105.4119 254.6972 15.30207781 57485
STARLINK-34239          
1 64728U 25144E   26185.00003472  .00040681  00000+0  12099-2 0  9992
2 64728  53.1603   0.5314 0001058  87.5545 256.2656 15.34366992  5834
STARLINK-34588          
1 64729U 25144F   26184.77600610  .00030369  00000+0  10329-2 0  9999
2 64729  53.1630   1.9490 0000824  93.7607 266.3488 15.30211545 57485
STARLINK-34606          
1 64730U 25144G   26185.19207898  .00026281  00000+0  78589-3 0  9990
2 64730  53.1607 359.5656 0000618  77.4928 282.6144 15.34413973 57554
STARLINK-34552          
1 64731U 25144H   26185.20365360  .00020271  00000+0  69476-3 0  9990
2 64731  53.1593 359.6353 0000908  88.4744 271.6361 15.30196252 57557
STARLINK-34596          
1 64732U 25144J   26185.18155800  .00031803  00000+0  94771-3 0  9993
2 64732  53.1592 359.5012 0001196  62.6060 297.5064 15.34422825 57552
STARLINK-34556          
1 64733U 25144K   26185.20624707  .00043996  00000+0  13047-2 0  9996
2 64733  53.1600 355.3963 0000976  88.8260 271.2855 15.34423533 57610
STARLINK-34591          
1 64734U 25144L   26184.75068229  .00024046  00000+0  82091-3 0  9998
2 64734  53.1618   1.7863 0001512  79.6061 280.5110 15.30217959 57464
STARLINK-34587          
1 64735U 25144M   26184.51897002  .00013803  00000+0  47733-3 0  9995
2 64735  53.1575   3.1897 0001199  96.8141 263.2996 15.30197971 57394
STARLINK-34130          
1 64736U 25144N   26184.48400637  .00028919  00000+0  86387-3 0  9998
2 64736  53.1628   2.9641 0001535  88.1002 272.0177 15.34395189 57442
STARLINK-34619          
1 64737U 25144P   26185.18582958  .00044769  00000+0  15144-2 0  9997
2 64737  53.1582   0.2332 0000945  78.0893 282.0214 15.30203469 57549
