OBJECT_NAME,OBJECT_ID,EPOCH,MEAN_MOTION,ECCENTRICITY,INCLINATION,RA_OF_ASC_NODE,ARG_OF_PERICENTER,MEAN_ANOMALY,EPHEMERIS_TYPE,CLASSIFICATION_TYPE,NORAD_CAT_ID,ELEMENT_SET_NO,REV_AT_EPOCH,BSTAR,MEAN_MOTION_DOT,MEAN_MOTION_DDOT
STARLINK-34316,2025-142M,2026-07-04T06:20:58.684704,14.98331568,.00028095,70.0014,20.4838,265.4369,94.6469,0,U,64707,999,5711,-.18539398E-3,-.2304E-4,0
STARLINK-34563,2025-142N,2026-07-04T05:44:58.730496,14.98352336,.00024332,70.0016,20.7960,266.1433,93.9447,0,U,64708,999,5691,.53123145E-3,.6255E-4,0
STARLINK-34499,2025-142P,2026-07-04T06:08:58.113024,14.98337482,.00029284,70.0021,20.4354,268.2598,91.8225,0,U,64709,999,5692,.22310143E-3,.2571E-4,0
STARLINK-34447,2025-142Q,2026-07-03T19:26:19.341312,14.98334540,.00023835,70.0027,21.6715,266.4702,93.6184,0,U,64710,999,5704,.28246119E-3,.3279E-4,0
STARLINK-34312,2025-142R,2026-07-04T00:02:42.461376,14.98335484,.00028331,70.0012,21.1672,267.1489,92.9345,0,U,64711,999,5707,.25483304E-3,.2949E-4,0
STARLINK-34515,2025-142S,2026-07-04T05:57:11.022336,14.98339438,.0002516,70.0018,20.4026,267.0222,93.0650,0,U,64712,999,5692,.13407736E-3,.1508E-4,0
STARLINK-34583,2025-142T,2026-07-03T23:08:24.300960,14.98338632,.0002911,70.0017,21.4119,268.2546,91.8280,0,U,64713,999,5687,.28233265E-3,.3278E-4,0
STARLINK-34574,2025-142U,2026-07-03T22:44:36.401856,14.98336668,.00025936,70.0040,21.3817,261.6450,98.4415,0,U,64714,999,5690,.29384903E-3,.3415E-4,0
STARLINK-34533,2025-142V,2026-07-04T06:27:00.419904,14.98337050,.0002654,70.0018,20.5002,267.0883,92.9973,0,U,64715,999,5692,.31523307E-3,.3671E-4,0
STARLINK-34548,2025-142W,2026-07-04T06:02:57.622848,14.98336659,.00030253,70.0016,20.4407,266.5376,93.5438,0,U,64716,999,5692,.31633999E-3,.3684E-4,0
STARLINK-34568,2025-142X,2026-07-03T19:26:05.305632,14.98333566,.00029084,70.0029,21.7069,265.2494,94.8333,0,U,64717,999,5688,.28368691E-3,.3294E-4,0
STARLINK-34546,2025-142Y,2026-07-04T05:50:56.245056,14.98340916,.00029638,70.0017,20.4108,268.6191,91.4628,0,U,64718,999,5711,.49313235E-3,.5798E-4,0
STARLINK-34577,2025-142Z,2026-07-03T22:44:21.968736,14.98337067,.00023597,70.0023,21.3503,257.4321,102.6574,0,U,64719,999,5690,.2249946E-3,.2593E-4,0
STARLINK-34572,2025-142AA,2026-07-03T19:20:04.667712,14.98334094,.00026418,70.0029,21.6909,263.8831,96.2027,0,U,64720,999,5704,.30961125E-3,.3604E-4,0
STARLINK-34558,2025-142AB,2026-07-04T06:33:15.393312,14.98336590,.00025593,70.0013,20.5075,265.8167,94.2700,0,U,64721,999,5692,.60471195E-3,.7131E-4,0
MTG-S1,2025-143A,2026-07-04T05:19:55.546752,1.00272378,.00030463,0.5907,342.5206,262.4259,116.8162,0,U,64723,999,359,0,.4E-7,0
STARLINK-34393,2025-144A,2026-07-04T00:00:02.999808,15.34364584,.00009289,53.1591,0.3739,83.2831,341.9242,0,U,64724,999,587,.13927617E-2,.46922E-3,0
STARLINK-34562,2025-144B,2026-07-03T18:46:34.144032,15.30213177,.00009624,53.1583,1.9885,66.2683,293.8419,0,U,64725,999,5746,.92887028E-3,.27263E-3,0
STARLINK-34557,2025-144C,2026-07-01T22:22:39.817920,15.30247813,.00004945,53.1612,10.3483,84.6627,275.4430,0,U,64726,999,5720,.10706139E-2,.31531E-3,0
STARLINK-34242,2025-144D,2026-07-03T18:57:12.307392,15.30207781,.00008121,53.1597,2.0325,105.4119,254.6972,0,U,64727,999,5748,.76804888E-3,.22463E-3,0
STARLINK-34239,2025-144E,2026-07-04T00:00:02.999808,15.34366992,.00010588,53.1603,0.5314,87.5545,256.2656,0,U,64728,999,583,.1209906E-2,.40681E-3,0
STARLINK-34588,2025-144F,2026-07-03T18:37:26.927040,15.30211545,.00008244,53.1630,1.9490,93.7607,266.3488,0,U,64729,999,5748,.10329101E-2,.30369E-3,0
STARLINK-34606,2025-144G,2026-07-04T04:36:35.623872,15.34413973,.00006187,53.1607,359.5656,77.4928,282.6144,0,U,64730,999,5755,.78589161E-3,.26281E-3,0
STARLINK-34552,2025-144H,2026-07-04T04:53:15.671040,15.30196252,.00009089,53.1593,359.6353,88.4744,271.6361,0,U,64731,999,5755,.69475647E-3,.20271E-3,0
STARLINK-34596,2025-144J,2026-07-04T04:21:26.611200,15.34422825,.00011964,53.1592,359.5012,62.6060,297.5064,0,U,64732,999,5755,.9477149E-3,.31803E-3,0
STARLINK-34556,2025-144K,2026-07-04T04:56:59.746848,15.34423533,.00009765,53.1600,355.3963,88.8260,271.2855,0,U,64733,999,5761,.13046654E-2,.43996E-3,0
STARLINK-34591,2025-144L,2026-07-03T18:00:58.949856,15.30217959,.00015129,53.1618,1.7863,79.6061,280.5110,0,U,64734,999,5746,.82091212E-3,.24046E-3,0
STARLINK-34587,2025-144M,2026-07-03T12:27:19.009728,15.30197971,.00011992,53.1575,3.1897,96.8141,263.2996,0,U,64735,999,5739,.47733129E-3,.13803E-3,0
STARLINK-34130,2025-144N,2026-07-03T11:36:58.150368,15.34395189,.00015353,53.1628,2.9641,88.1002,272.0177,0,U,64736,999,5744,.86387226E-3,.28919E-3,0
STARLINK-34619,2025-144P,2026-07-04T04:27:35.675712,15.30203469,.00009452,53.1582,0.2332,78.0893,282.0214,0,U,64737,999,5754,.15144145E-2,.44769E-3,0
